PROXIMA II              
1 43696U 18088G   24037.60837811  .00081862  00000+0  98811-3 0  9997
2 43696  85.0124 266.6990 0009839  35.1492 325.0418 15.60408149292027
SIRION PATHFINDER-2     
1 43759U 18099B   24037.10726649  .00005758  00000+0  45469-3 0  9991
2 43759  97.5455  97.0001 0016005  24.0678 336.1291 15.00974446282682
CORVUS BC4              
1 43767U 18099K   24037.08503061  .00004917  00000+0  39514-3 0  9998
2 43767  97.5315  94.5913 0012573  81.1490 279.1157 15.00404524282572
MOVE-II                 
1 43780U 18099Y   24037.60156637  .00017466  00000+0  10681-2 0  9990
2 43780  97.5411 102.2812 0008578  74.2322 285.9853 15.10275258283037
SPACEBEE-7              
1 43816U 18099BL  24037.15096897  .00011323  00000+0  74922-3 0  9996
2 43816  97.5678 102.7725 0011498  27.0649 333.1176 15.07459349282497
SPACEBEE-5              
1 43817U 18099BM  24037.20448962  .00492819  00000+0  42710-2 0  9999
2 43817  97.5530 119.9037 0007795 297.9036  62.1435 15.67611828283546
SPACEBEE-6              
1 43818U 18099BN  24037.17698392  .00023233  00000+0  12538-2 0  9995
2 43818  97.5608 106.4121 0010530  34.9050 325.2870 15.14700327282870
SHIELDS 1               
1 43850U 18104B   24037.42688556  .00014426  00000+0  44215-3 0  9999
2 43850  85.0251  12.2333 0010636 191.2404 168.8609 15.33597811285943
STF-1                   
1 43852U 18104D   24037.36701503  .00554351  11995-3  16332-2 0  9995
2 43852  85.0020   3.2323 0011280 128.4737 231.7557 15.92524488286853
ZACUBE-2                
1 43907U 18111AH  24037.56645839  .00117944  00000+0  11331-2 0  9993
2 43907  97.0949 279.3335 0011999  73.6893 286.5686 15.66131245285460
LUME 1                  
1 43908U 18111AJ  24037.61648462  .01024771  58490-3  14014-2 0  9992
2 43908  97.0902 287.2817 0005915  88.6904 271.5056 16.06346319285991
SONATE                  
1 44400U 19038Q   24037.50852135  .00019082  00000+0  69457-3 0  9991
2 44400  97.7061  26.4171 0016770 204.8090 155.2344 15.28141431253935
LUCKY-7                 
1 44406U 19038W   24037.48726151  .00030069  00000+0  91009-3 0  9998
2 44406  97.6998  29.0294 0014936 190.3798 169.7138 15.34028919254114
BEESAT 9                
1 44412U 19038AC  24037.50545567  .00080239  00000+0  13810-2 0  9995
2 44412  97.6856  34.1394 0011479 161.7755 198.3909 15.50741100254189
JAISAT-1                
1 44419U 19038F   24037.50041098  .00080844  00000+0  14045-2 0  9995
2 44419  97.6846  35.2311 0010889 159.7187 200.4498 15.50480991254564
DUCHIFAT-3              
1 44854U 19089C   24037.55240981  .00015243  00000+0  87932-3 0  9998
2 44854  36.9591 125.2082 0007866  95.7947 264.3695 15.11704855228316
M2 PATHFINDER           
1 45727U 20037E   24037.46668734  .00004044  00000+0  36608-3 0  9994
2 45727  97.7660 214.7686 0010952 199.6018 160.4784 14.95915433196243
NETSAT-4                
1 46504U 20068U   24037.43806656  .00011095  00000+0  65195-3 0  9993
2 46504  97.7903 351.5013 0012536  91.8478 268.4188 15.11807418184240
NETSAT-3                
1 46505U 20068V   24037.51356055  .00009686  00000+0  57606-3 0  9997
2 46505  97.7879 351.2321 0011768  98.7037 261.5526 15.11416943184255
NETSAT-1                
1 46506U 20068W   24037.38279916  .00008234  00000+0  50401-3 0  9997
2 46506  97.7902 350.8081 0010215 107.1284 253.1064 15.10438131184218
NETSAT-2                
1 46507U 20068X   24037.44759845  .00010900  00000+0  64244-3 0  9992
2 46507  97.7891 351.1876 0009572 111.0895 249.1359 15.11729737184193
WILDTRACKCUBE-SIMBA     
1 47941U 21022K   24037.58025361  .00013974  00000+0  70176-3 0  9995
2 47941  97.4770 295.8328 0015024 242.2334 117.7376 15.17301922158489
BEESAT-6                
1 47957U 21022AB  24036.68422594  .00063711  00000+0  17951-2 0  9996
2 47957  97.4689 300.7016 0008708 210.7013 149.3722 15.36172409158540
SMOG-1                  
1 47964U 21022AJ  24037.26584192  .00062140  00000+0  16799-2 0  9996
2 47964  97.4789 304.1369 0008649 190.0564 170.0508 15.37468646157817
BCCSAT-1                
1 48041U 21022AK  24037.23226876  .00043979  00000+0  14214-2 0  9991
2 48041  97.4781 301.7796 0007640 196.5468 163.5525 15.31928514157632
BEESAT-5                
1 48083U 21022AM  24036.70800744  .00070729  00000+0  17787-2 0  9991
2 48083  97.4517 301.3477 0007869 197.5670 162.5305 15.39663141157754
BEESAT-7                
1 48084U 21022AN  24036.46391387  .00042469  00000+0  12103-2 0  9990
2 48084  97.4742 300.8087 0008669 214.3445 145.7239 15.35922128157256
BEESAT-8                
1 48085U 21022AP  24036.69207564  .00026477  00000+0  10878-2 0  9997
2 48085  97.4849 298.2557 0012322 231.3406 128.6729 15.24098006157648
LEDSAT                  
1 49069U 21073D   24037.18949408  .00014056  00000+0  65306-3 0  9998
2 49069  97.4556 109.6210 0021916  30.1446 330.1045 15.19889874136378
<!DOCTYPE html PUBLIC "-//W3C//DTD XHTML 1.0 Strict//EN" "http://www.w3.org/TR/xhtml1/DTD/xhtml1-strict.dtd">
<html xmlns="http://www.w3.org/1999/xhtml">
<head>
<meta http-equiv="Content-Type" content="text/html; charset=iso-8859-1"/>
<title>404 - File Not Found.</title>
<style type="text/css">
<!--
body{margin:0;font-size:.7em;font-family:Verdana, Arial, Helvetica, sans-serif;background:#EEEEEE;}
fieldset{padding:0 15px 10px 15px;}
h1{font-size:2.4em;margin:0;color:#FFF;}
h2{font-size:1.7em;margin:0;color:#CC0000;}
h3{font-size:1.2em;margin:10px 0 0 0;color:#000000;}
#header{width:96%;margin:0 0 0 0;padding:6px 2% 6px 2%;font-family:"trebuchet MS", Verdana, sans-serif;color:#FFF;
background-color:#555555;}
#content{margin:0 0 0 2%;position:relative;}
.content-container{background:#FFF;width:96%;margin-top:8px;padding:10px;position:relative;}
-->
</style>
</head>
<body>
<div id="header"><h1>Server Error</h1></div>
<div id="content">
 <div class="content-container"><fieldset>
  <h2>404 - File Not Found.</h2>
  <h3>File not found for celestrak.org/NORAD/elements/active.txt.</h3>
  <h3>Please contact <a href="mailto:ts.kelso@celestrak.org">ts.kelso@celestrak.org</a> if you have other questions.</h3>
 </fieldset></div>
</div>
</body>
</html>
BEIJING 1               
1 28890U 05043A   24037.56992643  .00000629  00000+0  13442-3 0  9992
2 28890  98.1812 161.5592 0016238  97.8962 262.4083 14.62125320974661
HJ-1A                   
1 33320U 08041A   24037.55893648  .00001913  00000+0  26313-3 0  9999
2 33320  97.6358  51.1179 0022052  81.5168 278.8542 14.79229938830792
HJ-1B                   
1 33321U 08041B   24037.59892977  .00001444  00000+0  19614-3 0  9993
2 33321  97.6335  55.6734 0039936 124.7311 235.7673 14.79723246830825
YAOGAN 4                
1 33446U 08061A   24037.40956746  .00002175  00000+0  29974-3 0  9990
2 33446  97.8714 331.9350 0015132 359.0658   1.0523 14.79149136818070
DEIMOS-1                
1 35681U 09041A   24037.56140082  .00001011  00000+0  16470-3 0  9992
2 35681  97.6765 226.5726 0002831  89.9881 270.1652 14.72987487779937
UK-DMC 2                
1 35683U 09041C   24037.56169787  .00001457  00000+0  23505-3 0  9998
2 35683  97.7587 190.8331 0001474  96.9744 263.1632 14.72826106779586
RISAT 1                 
1 38248U 12017A   24037.61596388  .00011525  00000+0  52882-3 0  9999
2 38248  97.5332  54.8314 0003395  20.0283 340.1085 15.20583795649562
DMC3-FM1                
1 40715U 15032A   24037.56989443  .00001134  00000+0  14478-3 0  9997
2 40715  97.7704 280.2176 0006193  17.8425 342.3005 14.83306569462065
DMC3-FM2                
1 40716U 15032B   24037.59311823  .00001145  00000+0  14615-3 0  9997
2 40716  97.7755 281.2235 0008182  18.7006 341.4507 14.83308362462064
DMC3-FM3                
1 40717U 15032C   24037.61492422  .00001132  00000+0  14456-3 0  9995
2 40717  97.7801 282.4492 0009546  14.0235 346.1243 14.83300089462071
NOAA 15                 
1 25338U 98030A   24037.58466658  .00000293  00000+0  13952-3 0  9991
2 25338  98.5841  67.3718 0010125 355.3649   4.7436 14.26487002338422
DMSP 5D-3 F16 (USA 172) 
1 28054U 03048A   24037.61418260  .00000260  00000+0  16079-3 0  9991
2 28054  99.0214  42.8506 0008195  68.4037  40.7240 14.13943279 47700
NOAA 18                 
1 28654U 05018A   24037.51586144  .00000278  00000+0  17251-3 0  9994
2 28654  98.8867 115.5334 0015142  78.2220 282.0650 14.13116519964575
METEOSAT-9 (MSG-2)      
1 28912U 05049B   24037.22785344  .00000134  00000+0  00000+0 0  9997
2 28912   7.3817  61.9568 0000714  37.8177 163.8470  1.00267650 66402
EWS-G1 (GOES 13)        
1 29155U 06018A   24037.51555074  .00000098  00000+0  00000+0 0  9990
2 29155   2.2799  86.8697 0088106 249.7128  36.4201  0.99152740 34722
DMSP 5D-3 F17 (USA 191) 
1 29522U 06050A   24037.61189949  .00000287  00000+0  17248-3 0  9995
2 29522  98.7492  50.8798 0009865   1.0455 359.0737 14.14388168890590
FENGYUN 3A              
1 32958U 08026A   24037.46264292  .00000253  00000+0  14146-3 0  9992
2 32958  98.5883 348.5123 0009867  92.2596 267.9710 14.19008544813166
FENGYUN 2E              
1 33463U 08066A   24037.58999956 -.00000198  00000+0  00000+0 0  9992
2 33463   7.2490  61.2760 0001481 303.5047  70.6139  1.00270506 55468
NOAA 19                 
1 33591U 09005A   24037.59065350  .00000277  00000+0  17308-3 0  9991
2 33591  99.0678  91.8936 0013013 305.2180  54.7773 14.12921074772780
GOES 14                 
1 35491U 09033A   24037.61966083 -.00000056  00000+0  00000+0 0  9992
2 35491   0.0586 185.5327 0001210 202.3313 222.9663  1.00272674 53470
DMSP 5D-3 F18 (USA 210) 
1 35951U 09057A   24037.58368932  .00000419  00000+0  24327-3 0  9998
2 35951  98.7989  14.8187 0011038 176.0059 184.1204 14.13987583737786
